{"type": "FeatureCollection", "features": [ {"type": "Feature", "properties": {"norad_id": 37477, "name": "FENGYUN 1C DEB", "group": "fengyun-1c-debris", "lat": -6.462798168941543, "lon": 4.991556168390318, "alt_km": 823.0854521623432, "timestamp": "2025-12-25T16:53:14.952956+00:00", "meta": {"OBJECT_NAME": "FENGYUN 1C DEB", "OBJECT_ID": "1999-025EJX", "EPOCH": "2025-12-16T18:06:36.022176", "MEAN_MOTION": 14.19731482, "ECCENTRICITY": 0.00371355, "INCLINATION": 98.6057, "RA_OF_ASC_NODE": 355.3103, "ARG_OF_PERICENTER": 94.8392, "MEAN_ANOMALY": 265.7026, "EPHEMERIS_TYPE": 0, "CLASSIFICATION_TYPE": "U", "NORAD_CAT_ID": 37477, "ELEMENT_SET_NO": 999, "REV_AT_EPOCH": 81971, "BSTAR": 0.00055952668, "MEAN_MOTION_DOT": 1.15e-05, "MEAN_MOTION_DDOT": 0}, "tle": {"line1": "1 37477U 99025EJX 25350.75458359  .00001150  00000+0  55953-3 0  9990", "line2": "2 37477  98.6057 355.3103 0037135  94.8392 265.7026 14.19731482819713"}}, "geometry": {"type": "Point", "coordinates": [4.991556168390318, -6.462798168941543]}}, {"type": "Feature", "properties": {"norad_id": 37478, "name": "FENGYUN 1C DEB", "group": "fengyun-1c-debris", "lat": 72.35686911762456, "lon": -51.5188675036561, "alt_km": 1581.1775791584132, "timestamp": "2025-12-25T16:53:14.952966+00:00", "meta": {"OBJECT_NAME": "FENGYUN 1C DEB", "OBJECT_ID": "1999-025EJY", "EPOCH": "2025-12-23T05:31:28.594848", "MEAN_MOTION": 13.03020761, "ECCENTRICITY": 0.05479168, "INCLINATION": 99.6522, "RA_OF_ASC_NODE": 338.6097, "ARG_OF_PERICENTER": 295.1195, "MEAN_ANOMALY": 59.4029, "EPHEMERIS_TYPE": 0, "CLASSIFICATION_TYPE": "U", "NORAD_CAT_ID": 37478, "ELEMENT_SET_NO": 999, "REV_AT_EPOCH": 56698, "BSTAR": 0.0032489988, "MEAN_MOTION_DOT": 2.046e-05, "MEAN_MOTION_DDOT": 0}, "tle": {"line1": "1 37478U 99025EJY 25357.23019207  .00002046  00000+0  32490-2 0  9991", "line2": "2 37478  99.6522 338.6097 0547916 295.1195  59.4029 13.03020761566980"}}, "geometry": {"type": "Point", "coordinates": [-51.5188675036561, 72.35686911762456]}}, {"type": "Feature", "properties": {"norad_id": 37589, "name": "FENGYUN 1C DEB", "group": "fengyun-1c-debris", "lat": -44.635761469030804, "lon": 73.30073603714354, "alt_km": 787.0276447579299, "timestamp": "2025-12-25T16:53:14.952976+00:00", "meta": {"OBJECT_NAME": "FENGYUN 1C DEB", "OBJECT_ID": "1999-025EKH", "EPOCH": "2025-12-22T12:47:20.483808", "MEAN_MOTION": 14.08264276, "ECCENTRICITY": 0.01172304, "INCLINATION": 99.0749, "RA_OF_ASC_NODE": 259.1917, "ARG_OF_PERICENTER": 236.7185, "MEAN_ANOMALY": 122.271, "EPHEMERIS_TYPE": 0, "CLASSIFICATION_TYPE": "U", "NORAD_CAT_ID": 37589, "ELEMENT_SET_NO": 999, "REV_AT_EPOCH": 82722, "BSTAR": 0.0028934456, "MEAN_MOTION_DOT": 5.223e-05, "MEAN_MOTION_DDOT": 0}, "tle": {"line1": "1 37589U 99025EKH 25356.53287597  .00005223  00000+0  28934-2 0  9993", "line2": "2 37589  99.0749 259.1917 0117230 236.7185 122.2710 14.08264276827228"}}, "geometry": {"type": "Point", "coordinates": [73.30073603714354, -44.635761469030804]}}, {"type": "Feature", "properties": {"norad_id": 37594, "name": "FENGYUN 1C DEB", "group": "fengyun-1c-debris", "lat": -17.005843257367992, "lon": -154.0096295985597, "alt_km": 810.0052350752621, "timestamp": "2025-12-25T16:53:14.952986+00:00", "meta": {"OBJECT_NAME": "FENGYUN 1C DEB", "OBJECT_ID": "1999-025EKN", "EPOCH": "2025-12-23T12:53:53.738592", "MEAN_MOTION": 14.11128547, "ECCENTRICITY": 0.00852864, "INCLINATION": 98.7335, "RA_OF_ASC_NODE": 26.5783, "ARG_OF_PERICENTER": 238.8668, "MEAN_ANOMALY": 120.4117, "EPHEMERIS_TYPE": 0, "CLASSIFICATION_TYPE": "U", "NORAD_CAT_ID": 37594, "ELEMENT_SET_NO": 999, "REV_AT_EPOCH": 77914, "BSTAR": 0.00023559331, "MEAN_MOTION_DOT": 3.96e-06, "MEAN_MOTION_DDOT": 0}, "tle": {"line1": "1 37594U 99025EKN 25357.53742753  .00000396  00000+0  23559-3 0  9995", "line2": "2 37594  98.7335  26.5783 0085286 238.8668 120.4117 14.11128547779144"}}, "geometry": {"type": "Point", "coordinates": [-154.0096295985597, -17.005843257367992]}}, {"type": "Feature", "properties": {"norad_id": 37595, "name": "FENGYUN 1C DEB", "group": "fengyun-1c-debris", "lat": 69.63475375907082, "lon": -174.98259402708246, "alt_km": 654.1690049390209, "timestamp": "2025-12-25T16:53:14.952997+00:00", "meta": {"OBJECT_NAME": "FENGYUN 1C DEB", "OBJECT_ID": "1999-025EKP", "EPOCH": "2025-12-23T19:12:19.083168", "MEAN_MOTION": 14.71564982, "ECCENTRICITY": 0.00285537, "INCLINATION": 99.0458, "RA_OF_ASC_NODE": 208.3187, "ARG_OF_PERICENTER": 332.5627, "MEAN_ANOMALY": 100.7823, "EPHEMERIS_TYPE": 0, "CLASSIFICATION_TYPE": "U", "NORAD_CAT_ID": 37595, "ELEMENT_SET_NO": 999, "REV_AT_EPOCH": 62768, "BSTAR": 0.0037494781, "MEAN_MOTION_DOT": 0.00023466, "MEAN_MOTION_DDOT": 0}, "tle": {"line1": "1 37595U 99025EKP 25357.80022087  .00023466  00000+0  37495-2 0  9993", "line2": "2 37595  99.0458 208.3187 0028553 332.5627 100.7823 14.71564982627683"}}, "geometry": {"type": "Point", "coordinates": [-174.98259402708246, 69.63475375907082]}}, {"type": "Feature", "properties": {"norad_id": 37600, "name": "FENGYUN 1C DEB", "group": "fengyun-1c-debris", "lat": 45.76150530766759, "lon": -14.934905891966132, "alt_km": 1070.431529052983, "timestamp": "2025-12-25T16:53:14.953007+00:00", "meta": {"OBJECT_NAME": "FENGYUN 1C DEB", "OBJECT_ID": "1999-025EKU", "EPOCH": "2025-12-24T03:47:47.081184", "MEAN_MOTION": 13.82645296, "ECCENTRICITY": 0.03566234, "INCLINATION": 98.933, "RA_OF_ASC_NODE": 154.3007, "ARG_OF_PERICENTER": 18.485, "MEAN_ANOMALY": 342.8887, "EPHEMERIS_TYPE": 0, "CLASSIFICATION_TYPE": "U", "NORAD_CAT_ID": 37600, "ELEMENT_SET_NO": 999, "REV_AT_EPOCH": 88645, "BSTAR": 0.0028552433, "MEAN_MOTION_DOT": 5.014e-05, "MEAN_MOTION_DDOT": 0}, "tle": {"line1": "1 37600U 99025EKU 25358.15818381  .00005014  00000+0  28552-2 0  9992", "line2": "2 37600  98.9330 154.3007 0356623  18.4850 342.8887 13.82645296886458"}}, "geometry": {"type": "Point", "coordinates": [-14.934905891966132, 45.76150530766759]}}, {"type": "Feature", "properties": {"norad_id": 37683, "name": "FENGYUN 1C DEB", "group": "fengyun-1c-debris", "lat": -76.96167057221207, "lon": 59.307690020330206, "alt_km": 1575.6532887345902, "timestamp": "2025-12-25T16:53:14.953017+00:00", "meta": {"OBJECT_NAME": "FENGYUN 1C DEB", "OBJECT_ID": "1999-025EKY", "EPOCH": "2025-12-22T12:45:28.700352", "MEAN_MOTION": 13.31943553, "ECCENTRICITY": 0.05857029, "INCLINATION": 98.0031, "RA_OF_ASC_NODE": 274.2271, "ARG_OF_PERICENTER": 100.084, "MEAN_ANOMALY": 76.0427, "EPHEMERIS_TYPE": 0, "CLASSIFICATION_TYPE": "U", "NORAD_CAT_ID": 37683, "ELEMENT_SET_NO": 999, "REV_AT_EPOCH": 29370, "BSTAR": 0.0017018804, "MEAN_MOTION_DOT": 2.128e-05, "MEAN_MOTION_DDOT": 0}, "tle": {"line1": "1 37683U 99025EKY 25356.53158218  .00002128  00000+0  17019-2 0  9998", "line2": "2 37683  98.0031 274.2271 0585702 100.0840  76.0427 13.31943553293709"}}, "geometry": {"type": "Point", "coordinates": [59.307690020330206, -76.96167057221207]}}, {"type": "Feature", "properties": {"norad_id": 37686, "name": "FENGYUN 1C DEB", "group": "fengyun-1c-debris", "lat": 78.28663936535952, "lon": -33.36442621410253, "alt_km": 1018.7241198777965, "timestamp": "2025-12-25T16:53:14.953028+00:00", "meta": {"OBJECT_NAME": "FENGYUN 1C DEB", "OBJECT_ID": "1999-025ELB", "EPOCH": "2025-12-15T20:02:19.291200", "MEAN_MOTION": 13.35366399, "ECCENTRICITY": 0.03959537, "INCLINATION": 99.0216, "RA_OF_ASC_NODE": 7.9106, "ARG_OF_PERICENTER": 34.5937, "MEAN_ANOMALY": 145.9696, "EPHEMERIS_TYPE": 0, "CLASSIFICATION_TYPE": "U", "NORAD_CAT_ID": 37686, "ELEMENT_SET_NO": 999, "REV_AT_EPOCH": 60668, "BSTAR": 0.00056833835, "MEAN_MOTION_DOT": 4.14e-06, "MEAN_MOTION_DDOT": 0}, "tle": {"line1": "1 37686U 99025ELB 25349.83494550  .00000414  00000+0  56834-3 0  9993", "line2": "2 37686  99.0216   7.9106 0395953  34.5937 145.9696 13.35366399606681"}}, "geometry": {"type": "Point", "coordinates": [-33.36442621410253, 78.28663936535952]}}, {"type": "Feature", "properties": {"norad_id": 37687, "name": "FENGYUN 1C DEB", "group": "fengyun-1c-debris", "lat": -61.40425126867451, "lon": 48.59375585210033, "alt_km": 729.3290590538718, "timestamp": "2025-12-25T16:53:14.953038+00:00", "meta": {"OBJECT_NAME": "FENGYUN 1C DEB", "OBJECT_ID": "1999-025ELC", "EPOCH": "2025-12-24T08:18:17.269344", "MEAN_MOTION": 13.85435781, "ECCENTRICITY": 0.03336335, "INCLINATION": 98.2045, "RA_OF_ASC_NODE": 32.0557, "ARG_OF_PERICENTER": 326.5456, "MEAN_ANOMALY": 45.1288, "EPHEMERIS_TYPE": 0, "CLASSIFICATION_TYPE": "U", "NORAD_CAT_ID": 37687, "ELEMENT_SET_NO": 999, "REV_AT_EPOCH": 83415, "BSTAR": 0.0031735951, "MEAN_MOTION_DOT": 5.552e-05, "MEAN_MOTION_DDOT": 0}, "tle": {"line1": "1 37687U 99025ELC 25358.34603321  .00005552  00000+0  31736-2 0  9999", "line2": "2 37687  98.2045  32.0557 0333633 326.5456  45.1288 13.85435781834159"}}, "geometry": {"type": "Point", "coordinates": [48.59375585210033, -61.40425126867451]}}, {"type": "Feature", "properties": {"norad_id": 37689, "name": "FENGYUN 1C DEB", "group": "fengyun-1c-debris", "lat": 40.10150450055598, "lon": 33.74940621241001, "alt_km": 740.240370520778, "timestamp": "2025-12-25T16:53:14.953048+00:00", "meta": {"OBJECT_NAME": "FENGYUN 1C DEB", "OBJECT_ID": "1999-025ELE", "EPOCH": "2025-12-16T22:11:39.439392", "MEAN_MOTION": 14.48718217, "ECCENTRICITY": 0.00208957, "INCLINATION": 98.9198, "RA_OF_ASC_NODE": 32.0803, "ARG_OF_PERICENTER": 227.3129, "MEAN_ANOMALY": 132.6303, "EPHEMERIS_TYPE": 0, "CLASSIFICATION_TYPE": "U", "NORAD_CAT_ID": 37689, "ELEMENT_SET_NO": 999, "REV_AT_EPOCH": 57873, "BSTAR": 0.0018942734, "MEAN_MOTION_DOT": 7.118e-05, "MEAN_MOTION_DDOT": 0}, "tle": {"line1": "1 37689U 99025ELE 25350.92476203  .00007118  00000+0  18943-2 0  9999", "line2": "2 37689  98.9198  32.0803 0020895 227.3129 132.6303 14.48718217578736"}}, "geometry": {"type": "Point", "coordinates": [33.74940621241001, 40.10150450055598]}}]}